CELTEE 1                
1 41850U 16067C   18133.19635088  .00000761  00000-0  71745-4 0  9996
2 41850  97.9239 220.9444 0007070 282.5999  77.4432 14.96800533 81861
OPTICUBE 04             
1 41851U 16067D   18132.82393779 -.00000319  00000-0 -22658-4 0  9994
2 41851  97.9229 220.4918 0007703 285.8963  74.1408 14.96657071 81800
AEROCUBE 8D             
1 41852U 16067E   18133.19088910  .00000844  00000-0  79705-4 0  9990
2 41852  97.9246 220.7105 0008005 283.1075  76.9252 14.96474556 81848
AEROCUBE 8C             
1 41853U 16067F   18132.86986162  .00000405  00000-0  41083-4 0  9991
2 41853  97.9248 220.3510 0008436 286.8593  73.1703 14.96441155 81793
PROMETHEUS 2-1          
1 41854U 16067G   18133.21297064  .00000060  00000-0  10652-4 0  9993
2 41854  97.9252 220.6993 0008910 285.0049  75.0185 14.96533676 81842
PROMETHEUS 2-3          
1 41855U 16067H   18133.21553872 -.00000008  00000-0  46097-5 0  9992
2 41855  97.9254 220.7054 0009141 285.2572  74.7638 14.96530395 81848
ITF-2                   
1 41932U 98067KU  18133.35000913  .00032367  00000-0  22345-3 0  9996
2 41932  51.6346 160.0912 0005473  50.0115 310.1363 15.74240155 75278
WASEDA-SAT3             
1 41933U 98067KV  18132.88806295  .00048519  00000-0  26441-3 0  9998
2 41933  51.6337 156.8764 0005566  43.5528 316.5912 15.79408179 75272
AOBA-VELOX 3            
1 41935U 98067KX  18133.44573862  .00041567  00000-0  24817-3 0  9995
2 41935  51.6352 156.1766 0005520  50.0112 310.1372 15.77441109 75434
INS-1B                  
1 41954U 17008G   18132.90649138  .00001702  00000-0  75504-4 0  9999
2 41954  97.4486 197.1642 0011123 113.9587 246.2816 15.22912543 68631
BGUSAT                  
1 41999U 17008BD  18133.17809004  .00002739  00000-0  11445-3 0  9992
2 41999  97.4530 198.3875 0010087 128.2951 231.9195 15.24440862 68096
DIDO-2                  
1 42000U 17008BE  18132.91851684  .00001284  00000-0  57352-4 0  9990
2 42000  97.4504 197.5889 0010015 129.4953 230.7171 15.23122145 68038
PEASSS                  
1 42015U 17008BV  18132.91553233  .00001542  00000-0  66759-4 0  9993
2 42015  97.4500 198.0009 0007802 134.0595 226.1285 15.23919866 68549
AL-FARABI 1             
1 42016U 17008BW  18132.91747605  .00001963  00000-0  83230-4 0  9992
2 42016  97.4508 198.1752 0007762 134.2195 225.9681 15.24311029 68676
NAYIF-1 (EO-88)         
1 42017U 17008BX  18132.91227711  .00001958  00000-0  82944-4 0  9999
2 42017  97.4506 198.1763 0007727 134.4562 225.7309 15.24334149 68693
HAVELSAT                
1 42700U 98067LH  18133.46498349  .00026115  00000-0  22197-3 0  9995
2 42700  51.6346 172.1175 0003927  87.7545 272.3901 15.69420964 56563
SGSAT                   
1 42703U 98067LL  18126.44191986  .17722778  12425-4  13973-2 0  9990
2 42703  51.6180 185.5549 0005134 302.2194  57.7887 16.39284937 55666
CXBN-2                  
1 42704U 98067LM  18133.15839393  .00024265  00000-0  21014-3 0  9994
2 42704  51.6353 174.5837 0003575  30.9115 329.2092 15.69012145 56424
ICECUBE                 
1 42705U 98067LN  18133.35639933  .00043633  00000-0  27752-3 0  9990
2 42705  51.6427 167.7190 0004674  46.8290 313.3100 15.75988016 56592
PHOENIX                 
1 42706U 98067LP  18133.51120891  .00019502  00000-0  17807-3 0  9995
2 42706  51.6349 173.1847 0002580  35.0360 325.0806 15.67868145 56468
X-CUBESAT               
1 42707U 98067LQ  18133.32899202  .00027267  00000-0  22742-3 0  9995
2 42707  51.6317 172.6557 0003033  30.4834 329.6339 15.69856797 56446
QBEE50-LTU-OC           
1 42708U 98067LR  18133.51265521  .00025045  00000-0  21572-3 0  9990
2 42708  51.6354 172.4275 0002930  33.2620 326.8561 15.69126453 56425
ALTAIR PATHFINDER       
1 42711U 98067LS  18133.36814799  .00012878  00000-0  14178-3 0  9998
2 42711  51.6357 179.7365 0004684  43.5056 316.6308 15.63518448 56022
SHARC                   
1 42712U 98067LT  18133.17089974  .00020474  00000-0  22743-3 0  9995
2 42712  51.6374 182.2196 0003607  40.9292 319.1973 15.62879339 56215
ZA-AEROSAT              
1 42713U 98067LU  18133.51142926  .00018517  00000-0  17813-3 0  9998
2 42713  51.6341 175.4257 0003584  30.3405 329.7798 15.66609099 56091
LINK                    
1 42714U 98067LV  18133.31075789  .00052342  00000-0  32797-3 0  9991
2 42714  51.6266 167.9618 0005405  23.5041 336.6205 15.76244727 56284
CSUNSAT 1               
1 42715U 98067LW  18133.35128141  .00019981  00000-0  18822-3 0  9992
2 42715  51.6351 175.8740 0005143  33.5364 326.5957 15.67067679 56070
SPACECUBE               
1 42717U 98067LY  18133.47424274  .00026336  00000-0  22686-3 0  9998
2 42717  51.6330 172.9073 0003011  75.4417 284.6914 15.69092986 55495
HOOPOE                  
1 42718U 98067LZ  18133.36885695  .00031607  00000-0  24839-3 0  9994
2 42718  51.6341 171.4573 0003249  62.9299 297.2030 15.71205541 55506
CHALLENGER              
1 42721U 98067MA  18133.46425845  .00080609  00000-0  40740-3 0  9991
2 42721  51.6278 163.7176 0006432  52.3140 307.8444 15.80847639 55313
NJUST-1                 
1 42722U 98067MB  18133.36066076  .00017031  00000-0  17002-3 0  9992
2 42722  51.6353 177.4354 0005696  85.1463 275.0183 15.65739436 55124
UNSW-ECO                
1 42723U 98067MC  18133.51043529  .00036329  00000-0  27816-3 0  9993
2 42723  51.6363 170.9292 0005260  69.8332 290.3232 15.71745661 55204
LILACSAT-1              
1 42725U 98067ME  18133.38975880  .00023302  00000-0  21179-3 0  9997
2 42725  51.6352 175.3747 0004759  78.3589 281.7941 15.67846941 55051
NSIGHT-1                
1 42726U 98067MF  18133.42973235  .00007732  00000-0  96174-4 0  9992
2 42726  51.6379 182.4439 0005592  96.2222 263.9409 15.61028301 54974
SNUSAT-1                
1 42727U 98067MG  18132.57070590  .00025746  00000-0  23467-3 0  9999
2 42727  51.6336 179.6098 0007178  50.0554 310.1072 15.67697042 54897
I-INSPIRE II            
1 42731U 98067ML  18133.32507172  .00034928  00000-0  26203-3 0  9992
2 42731  51.6331 171.1270 0007185  39.0293 321.1223 15.72235128 54968
POLYITAN-2-SAU          
1 42732U 98067MM  18133.45718720  .00028069  00000-0  23548-3 0  9998
2 42732  51.6341 172.7878 0006986  40.8976 319.2545 15.69676785 54955
SNUSAT-1B               
1 42733U 98067MN  18133.32172512  .00023283  00000-0  20729-3 0  9999
2 42733  51.6346 174.8978 0006967  43.3439 316.8104 15.68342692 54912
EXALTA-1                
1 42734U 98067MP  18133.51018882  .00041886  00000-0  30699-3 0  9996
2 42734  51.6312 170.0949 0007269  57.0960 303.0737 15.72696415 54942
BEEAGLESAT              
1 42736U 98067MR  18133.35500269  .00021200  00000-0  19791-3 0  9993
2 42736  51.6343 175.8686 0005942  80.5031 279.6636 15.67244059 54960
UCLSAT                  
1 42765U 17036A   18132.89948261  .00001575  00000-0  72445-4 0  9997
2 42765  97.4038 193.3127 0011480 192.1536 167.9424 15.21759470 49933
LITUANICASAT-2          
1 42768U 17036D   18133.47128212  .00002524  00000-0  11584-3 0  9992
2 42768  97.4053 193.4951 0015892 181.6501 178.4685 15.21225444 49288
AALTO-1                 
1 42775U 17036L   18132.69824946  .00001056  00000-0  51106-4 0  9994
2 42775  97.4032 192.6642 0014163 182.0131 178.1050 15.20685705 49108
URSA MAIOR              
1 42776U 17036M   18133.14716801  .00001099  00000-0  52931-4 0  9990
2 42776  97.4038 193.1494 0014049 180.5971 179.5250 15.20759806 49172
COMPASS 2               
1 42777U 17036N   18133.15939207  .00002059  00000-0  94143-4 0  9997
2 42777  97.4058 193.4920 0012985 183.2026 176.9129 15.21612019 49182
DIAMOND RED             
1 42783U 17036U   18133.15254966  .00001250  00000-0  58755-4 0  9997
2 42783  97.4039 193.4382 0012109 191.5405 168.5555 15.21380748 49182
PEGASUS                 
1 42784U 17036V   18132.80102845  .00001486  00000-0  68873-4 0  9990
2 42784  97.4040 193.1504 0011976 192.9522 167.1408 15.21572527 49139
DIAMOND GREEN           
1 42785U 17036W   18133.41458392  .00001298  00000-0  60880-4 0  9991
2 42785  97.4041 193.7078 0012006 191.1711 168.9260 15.21384337 49213
DIAMOND BLUE            
1 42786U 17036X   18133.15063024  .00001247  00000-0  58622-4 0  9992
2 42786  97.4040 193.4485 0011824 192.3605 167.7343 15.21383448 49170
NUDTSAT                 
1 42787U 17036Y   18132.92947903  .00002168  00000-0  97575-4 0  9997
2 42787  97.4048 193.4453 0011639 191.6028 168.4942 15.22109985 49007
SUCHAI                  
1 42788U 17036Z   18132.89585806  .00001801  00000-0  82240-4 0  9990
2 42788  97.4042 193.3275 0011655 192.0597 168.0362 15.21826877 49228
SKCUBE                  
1 42789U 17036AA  18132.89448448  .00001597  00000-0  73343-4 0  9997
2 42789  97.4040 193.3236 0011457 192.1248 167.9714 15.21795490 49144
VZLUSAT-1               
1 42790U 17036AB  18132.91929150  .00002137  00000-0  96152-4 0  9990
2 42790  97.4045 193.4432 0011191 191.6559 168.4420 15.22133610 49156
ROBUSTA-1B              
1 42792U 17036AD  18132.86640020  .00001614  00000-0  73785-4 0  9998
2 42792  97.4039 193.3514 0010995 192.9966 167.0989 15.21934165 49156
CICERO 6                
1 42793U 17036AE  18132.72584447  .00001085  00000-0  50810-4 0  9990
2 42793  97.4032 193.2201 0010081 193.9224 166.1736 15.21809257 49205
D-SAT                   
1 42794U 17036AF  18133.14311972  .00000346  00000-0  35541-4 0  9992
2 42794  97.5947 189.1169 0128078  39.4738 321.5725 14.90850099 48501
TOKI                    
1 42820U 98067MU  18133.34201325  .00020298  00000-0  19658-3 0  9995
2 42820  51.6343 178.0388 0004312  24.8379 335.2823 15.66368068 48397
MAZAALAI (NUMSAT-1)     
1 42822U 98067MW  18133.49733995  .00019411  00000-0  19004-3 0  9996
2 42822  51.6345 177.5807 0004263  28.9405 331.1826 15.66129646 48396
BRAC ONNESHA            
1 42823U 98067MX  18132.60193954  .00023697  00000-0  23025-3 0  9993
2 42823  51.6353 182.1164 0006308  44.7358 315.4146 15.66166091 48259
